NORAD_CAT_ID,OBJECT_NAME,OBJECT_TYPE,EPOCH,MEAN_MOTION,ECCENTRICITY,INCLINATION,RA_OF_ASC_NODE,ARG_OF_PERICENTER,MEAN_ANOMALY,BSTAR,MEAN_MOTION_DOT,MEAN_MOTION_DDOT,TLE_LINE0,TLE_LINE1,TLE_LINE2,SEMIMAJOR_AXIS,PERIOD,APOGEE,PERIGEE,DECAYED
52671.0,STARLINK-4071,PAYLOAD,2023-04-22 13:15:20,15.0884785,9.95e-05,53.2135,197.3517,109.3899,250.7201,0.00016502,2.34e-05,0.0,0 STARLINK-4071,1 52671U 22053R   23112.55232462  .00002340  00000-0  16502-3 0  9997,2 52671  53.2135 197.3517 0000995 109.3899 250.7201 15.08847850 52209,6917.856,95.437,540.41,539.033,0.0
52671.0,STARLINK-4071,PAYLOAD,2023-04-23 05:09:13,15.08836165,0.000132,53.215,194.3769,83.4174,276.6968,0.00010811,1.433e-05,0.0,0 STARLINK-4071,1 52671U 22053R   23113.21473386  .00001433  00000-0  10811-3 0  9992,2 52671  53.2150 194.3769 0001320  83.4174 276.6968 15.08836165 51880,6917.892,95.438,540.67,538.844,0.0
52671.0,STARLINK-4071,PAYLOAD,2023-04-23 14:41:31,15.08839766,0.0001171,53.2145,192.5919,91.9596,268.153,7.412e-05,8.92e-06,0.0,0 STARLINK-4071,1 52671U 22053R   23113.61217287  .00000892  00000-0  74120-4 0  9994,2 52671  53.2145 192.5919 0001171  91.9596 268.1530 15.08839766 52362,6917.881,95.438,540.556,538.936,0.0
52671.0,STARLINK-4071,PAYLOAD,2023-04-24 04:59:58,15.08870158,0.0001231,53.2155,189.9131,91.7483,268.365,0.00042034,6.414e-05,0.0,0 STARLINK-4071,1 52671U 22053R   23114.20832067  .00006414  00000-0  42034-3 0  9993,2 52671  53.2155 189.9131 0001231  91.7483 268.3650 15.08870158 52038,6917.788,95.436,540.505,538.802,0.0
52671.0,STARLINK-4071,PAYLOAD,2023-04-24 22:29:12,15.08870981,0.0001274,53.2152,186.6433,81.8595,278.2541,0.0005393,8.313e-05,0.0,0 STARLINK-4071,1 52671U 22053R   23114.93695372  .00008313  00000-0  53930-3 0  9996,2 52671  53.2152 186.6433 0001274  81.8595 278.2541 15.08870981 52140,6917.786,95.436,540.532,538.769,0.0
52671.0,STARLINK-4071,PAYLOAD,2023-04-25 11:12:19,15.08803678,0.0001415,53.2148,184.2636,108.3194,251.7952,-0.0010127,-0.00016353,0.0,0 STARLINK-4071,1 52671U 22053R   23115.46689073 -.00016353  00000-0 -10127-2 0  9991,2 52671  53.2148 184.2636 0001415 108.3194 251.7952 15.08803678 52647,6917.991,95.44,540.835,538.878,0.0
52671.0,STARLINK-4071,PAYLOAD,2023-04-26 09:27:45,15.08809918,0.0001307,53.2153,180.1041,69.5895,290.5238,0.00025417,3.756e-05,0.0,0 STARLINK-4071,1 52671U 22053R   23116.39427572  .00003756  00000-0  25417-3 0  9998,2 52671  53.2153 180.1041 0001307  69.5895 290.5238 15.08809918 52780,6917.972,95.439,540.742,538.933,0.0
52671.0,STARLINK-4071,PAYLOAD,2023-04-26 20:35:27,15.08834321,0.0001474,53.2156,178.0207,112.9419,247.1729,0.0008817,0.0001377,0.0,0 STARLINK-4071,1 52671U 22053R   23116.85795679  .00013770  00000-0  88170-3 0  9997,2 52671  53.2156 178.0207 0001474 112.9419 247.1729 15.08834321 52434,6917.898,95.438,540.782,538.743,0.0
52671.0,STARLINK-4071,PAYLOAD,2023-04-27 12:29:18,15.08871842,0.0001254,53.2145,175.0457,107.6316,252.4813,0.001254,0.00019743,0.0,0 STARLINK-4071,1 52671U 22053R   23117.52034744  .00019743  00000-0  12540-2 0  9994,2 52671  53.2145 175.0457 0001254 107.6316 252.4813 15.08871842 52958,6917.783,95.436,540.516,538.781,0.0
52671.0,STARLINK-4071,PAYLOAD,2023-04-28 12:20:04,15.08861389,0.0001363,53.2137,170.586,110.1802,249.9337,0.00018007,2.581e-05,0.0,0 STARLINK-4071,1 52671U 22053R   23118.51393546  .00002581  00000-0  18007-3 0  9999,2 52671  53.2137 170.5860 0001363 110.1802 249.9337 15.08861389 52684,6917.815,95.436,540.623,538.737,0.0
52671.0,STARLINK-4071,PAYLOAD,2023-04-29 12:10:51,15.0884603,0.0001435,53.2147,166.1268,93.8454,266.2703,-7.94e-05,-1.552e-05,0.0,0 STARLINK-4071,1 52671U 22053R   23119.50753542 -.00001552  00000-0 -79400-4 0  9999,2 52671  53.2147 166.1268 0001435  93.8454 266.2703 15.08846030 53257,6917.862,95.437,540.72,538.734,0.0
52671.0,STARLINK-4071,PAYLOAD,2023-04-30 10:26:14,15.08845021,0.0001357,53.2146,161.9619,89.5384,270.5764,-2.3554e-05,-6.63e-06,0.0,0 STARLINK-4071,1 52671U 22053R   23120.43489484 -.00000663  00000-0 -23554-4 0  9995,2 52671  53.2146 161.9619 0001357  89.5384 270.5764 15.08845021 53395,6917.865,95.437,540.669,538.791,0.0
52671.0,STARLINK-4071,PAYLOAD,2023-05-01 11:52:25,15.08836847,0.0001398,53.2152,157.2034,88.2586,271.8566,4.2368e-05,3.86e-06,0.0,0 STARLINK-4071,1 52671U 22053R   23121.49474379  .00000386  00000-0  42368-4 0  9993,2 52671  53.2152 157.2034 0001398  88.2586 271.8566 15.08836847 53138,6917.89,95.438,540.722,538.788,0.0
52671.0,STARLINK-4071,PAYLOAD,2023-05-02 06:57:02,15.08846739,0.0001303,53.2154,153.6354,90.5569,269.5573,0.0001273,1.739e-05,0.0,0 STARLINK-4071,1 52671U 22053R   23122.28961546  .00001739  00000-0  12730-3 0  9990,2 52671  53.2154 153.6354 0001303  90.5569 269.5573 15.08846739 53254,6917.86,95.437,540.626,538.823,0.0
52671.0,STARLINK-4071,PAYLOAD,2023-05-02 08:32:25,15.08847656,0.0001317,53.2153,153.3379,90.3674,269.7469,0.00013473,1.857e-05,0.0,0 STARLINK-4071,1 52671U 22053R   23122.35585460  .00001857  00000-0  13473-3 0  9991,2 52671  53.2153 153.3379 0001317  90.3674 269.7469 15.08847656 53689,6917.857,95.437,540.633,538.811,0.0
52671.0,STARLINK-4071,PAYLOAD,2023-05-03 05:12:27,15.08840777,0.0001277,53.2147,149.4736,75.3237,284.7896,8.1884e-05,1.016e-05,0.0,0 STARLINK-4071,1 52671U 22053R   23123.21698117  .00001016  00000-0  81884-4 0  9990,2 52671  53.2147 149.4736 0001277  75.3237 284.7896 15.08840777 53394,6917.878,95.438,540.626,538.86,0.0
52671.0,STARLINK-4071,PAYLOAD,2023-05-03 11:33:59,15.08841028,0.0001194,53.2147,148.2827,88.934,271.1789,8.2789e-05,1.03e-05,0.0,0 STARLINK-4071,1 52671U 22053R   23123.48193952  .00001030  00000-0  82789-4 0  9997,2 52671  53.2147 148.2827 0001194  88.9340 271.1789 15.08841028 53857,6917.877,95.437,540.568,538.916,0.0
52671.0,STARLINK-4071,PAYLOAD,2023-05-04 11:24:46,15.08841885,0.0001269,53.2148,143.8217,90.3249,269.7888,1.7989e-05,-2e-08,0.0,0 STARLINK-4071,1 52671U 22053R   23124.47553949 -.00000002  00000-0  17989-4 0  9992,2 52671  53.2148 143.8217 0001269  90.3249 269.7888 15.08841885 53584,6917.875,95.437,540.618,538.862,0.0
52671.0,STARLINK-4071,PAYLOAD,2023-05-05 06:29:24,15.08835816,0.0001239,53.2149,140.2531,89.3173,270.7961,3.3508e-05,2.45e-06,0.0,0 STARLINK-4071,1 52671U 22053R   23125.27042379  .00000245  00000-0  33508-4 0  9994,2 52671  53.2149 140.2531 0001239  89.3173 270.7961 15.08835816 53701,6917.893,95.438,540.615,538.901,0.0
52671.0,STARLINK-4071,PAYLOAD,2023-05-05 17:37:06,15.088363,0.000124,53.215,138.1715,87.83,272.2834,3.8478e-05,3.25e-06,0.0,0 STARLINK-4071,1 52671U 22053R   23125.73410433  .00000325  00000-0  38478-4 0  9995,2 52671  53.2150 138.1715 0001240  87.8300 272.2834 15.08836300 54199,6917.892,95.438,540.615,538.899,0.0
52671.0,STARLINK-4071,PAYLOAD,2023-05-06 07:55:34,15.08840698,0.0001194,53.2149,135.4952,89.0602,271.0527,7.2788e-05,8.71e-06,0.0,0 STARLINK-4071,1 52671U 22053R   23126.33026251  .00000871  00000-0  72788-4 0  9991,2 52671  53.2149 135.4952 0001194  89.0602 271.0527 15.08840698 54288,6917.878,95.438,540.569,538.917,0.0
52671.0,STARLINK-4071,PAYLOAD,2023-05-06 23:49:26,15.0883909,0.0001167,53.215,132.5217,85.5124,274.6002,7.2821e-05,8.71e-06,0.0,0 STARLINK-4071,1 52671U 22053R   23126.99266399  .00000871  00000-0  72821-4 0  9990,2 52671  53.2150 132.5217 0001167  85.5124 274.6002 15.08839090 53967,6917.883,95.438,540.555,538.941,0.0
52671.0,STARLINK-4071,PAYLOAD,2023-05-07 07:46:21,15.08841556,0.0001172,53.2151,131.0349,85.2784,274.8342,8.7379e-05,1.103e-05,0.0,0 STARLINK-4071,1 52671U 22053R   23127.32386243  .00001103  00000-0  87379-4 0  9992,2 52671  53.2151 131.0349 0001172  85.2784 274.8342 15.08841556 54435,6917.876,95.437,540.551,538.93,0.0
52671.0,STARLINK-4071,PAYLOAD,2023-05-07 17:18:40,15.08838426,0.0001162,53.2154,129.2508,87.3671,272.7454,5.7475e-05,6.27e-06,0.0,0 STARLINK-4071,1 52671U 22053R   23127.72130539  .00000627  00000-0  57475-4 0  9995,2 52671  53.2154 129.2508 0001162  87.3671 272.7454 15.08838426 54490,6917.885,95.438,540.554,538.946,0.0
52671.0,STARLINK-4071,PAYLOAD,2023-05-08 04:26:23,15.0883335,0.0001186,53.2155,127.1695,88.2128,271.9,-1.8376e-07,-2.91e-06,0.0,0 STARLINK-4071,1 52671U 22053R   23128.18499156 -.00000291  00000-0 -18376-6 0  9997,2 52671  53.2155 127.1695 0001186  88.2128 271.9000 15.08833350 54149,6917.901,95.438,540.586,538.945,0.0
52671.0,STARLINK-4071,PAYLOAD,2023-05-08 17:09:28,15.08838261,0.0001236,53.2155,124.7909,86.4541,273.6593,1.9121e-05,1.6e-07,0.0,0 STARLINK-4071,1 52671U 22053R   23128.71490871  .00000016  00000-0  19121-4 0  9991,2 52671  53.2155 124.7909 0001236  86.4541 273.6593 15.08838261 54642,6917.886,95.438,540.606,538.896,0.0
52671.0,STARLINK-4071,PAYLOAD,2023-05-09 05:52:32,15.08841441,0.0001206,53.2153,122.4112,87.3497,272.7633,6.6045e-05,7.63e-06,0.0,0 STARLINK-4071,1 52671U 22053R   23129.24482540  .00000763  00000-0  66045-4 0  9990,2 52671  53.2153 122.4112 0001206  87.3497 272.7633 15.08841441 54726,6917.876,95.437,540.575,538.907,0.0
52671.0,STARLINK-4071,PAYLOAD,2023-05-10 05:43:19,15.08843934,0.0001211,53.2157,117.9498,91.9118,268.2013,0.00015695,2.211e-05,0.0,0 STARLINK-4071,1 52671U 22053R   23130.23842200  .00002211  00000-0  15695-3 0  9998,2 52671  53.2157 117.9498 0001211  91.9118 268.2013 15.08843934 54870,6917.868,95.437,540.571,538.896,0.0
52671.0,STARLINK-4071,PAYLOAD,2023-05-11 05:34:07,15.08842133,0.0001234,53.2158,113.4881,96.2763,263.837,4.6934e-05,4.59e-06,0.0,0 STARLINK-4071,1 52671U 22053R   23131.23202578  .00000459  00000-0  46934-4 0  9990,2 52671  53.2158 113.4881 0001234  96.2763 263.8370 15.08842133 54605,6917.874,95.437,540.593,538.885,0.0
52671.0,STARLINK-4071,PAYLOAD,2023-05-12 05:24:54,15.08836912,0.0001189,53.2158,109.0279,96.0341,264.0787,-1.7137e-06,-3.15e-06,0.0,0 STARLINK-4071,1 52671U 22053R   23132.22563098 -.00000315  00000-0 -17137-5 0  9994,2 52671  53.2158 109.0279 0001189  96.0341 264.0787 15.08836912 54755,6917.89,95.438,540.577,538.932,0.0
